[
  {
    "ORDINAL": "1",
    "COMMENT": "GENERATED VIA SPACETRACK.ORG API",
    "ORIGINATOR": "JSPOC",
    "NORAD_CAT_ID": "29",
    "OBJECT_NAME": "TIROS 1",
    "OBJECT_TYPE": "PAYLOAD",
    "CLASSIFICATION_TYPE": "U",
    "INTLDES": "60002B",
    "EPOCH": "2019-03-18 12:58:56",
    "EPOCH_MICROSECONDS": "620704",
    "MEAN_MOTION": "14.74292557",
    "ECCENTRICITY": "0.0023672",
    "INCLINATION": "48.3796",
    "RA_OF_ASC_NODE": "304.8249",
    "ARG_OF_PERICENTER": "77.4087",
    "MEAN_ANOMALY": "282.947",
    "EPHEMERIS_TYPE": "0",
    "ELEMENT_SET_NO": "999",
    "REV_AT_EPOCH": "15112",
    "BSTAR": "1.5768e-05",
    "MEAN_MOTION_DOT": "-1.03e-06",
    "MEAN_MOTION_DDOT": "0",
    "FILE": "2427675",
    "TLE_LINE0": "0 TIROS 1",
    "TLE_LINE1": "1    29U 60002B   19077.54093311 -.00000103 +00000-0 +15768-4 0  9995",
    "TLE_LINE2": "2    29 048.3796 304.8249 0023672 077.4087 282.9470 14.74292557151121",
    "OBJECT_ID": "1960-002B",
    "OBJECT_NUMBER": "29",
    "SEMIMAJOR_AXIS": "7025.534",
    "PERIOD": "97.673",
    "APOGEE": "664.030",
    "PERIGEE": "630.769"
  },
  {
    "ORDINAL": "1",
    "COMMENT": "GENERATED VIA SPACETRACK.ORG API",
    "ORIGINATOR": "JSPOC",
    "NORAD_CAT_ID": "30",
    "OBJECT_NAME": "THOR ABLESTAR R/B",
    "OBJECT_TYPE": "ROCKET BODY",
    "CLASSIFICATION_TYPE": "U",
    "INTLDES": "60003A",
    "EPOCH": "1961-08-16 14:24:53",
    "EPOCH_MICROSECONDS": "774496",
    "MEAN_MOTION": "16.29358349",
    "ECCENTRICITY": "0",
    "INCLINATION": "51.25",
    "RA_OF_ASC_NODE": "356.4892",
    "ARG_OF_PERICENTER": "331.9473",
    "MEAN_ANOMALY": "28.0526",
    "EPHEMERIS_TYPE": "0",
    "ELEMENT_SET_NO": "999",
    "REV_AT_EPOCH": "7590",
    "BSTAR": "0",
    "MEAN_MOTION_DOT": "0.02125614",
    "MEAN_MOTION_DDOT": "0",
    "FILE": "33907",
    "TLE_LINE0": "0 THOR ABLESTAR R/B",
    "TLE_LINE1": "1 00030U 60003  A 61228.60062239  .02125614 +00000-0 +00000-0 0  9990",
    "TLE_LINE2": "2 00030 051.2500 356.4892 0000000 331.9473 028.0526 16.29358349075909",
    "OBJECT_ID": "1960-003A",
    "OBJECT_NUMBER": "30",
    "SEMIMAJOR_AXIS": "6572.405",
    "PERIOD": "88.378",
    "APOGEE": "194.270",
    "PERIGEE": "194.270"
  },
  {
    "ORDINAL": "1",
    "COMMENT": "GENERATED VIA SPACETRACK.ORG API",
    "ORIGINATOR": "JSPOC",
    "NORAD_CAT_ID": "48",
    "OBJECT_NAME": "DISCOVERER 13",
    "OBJECT_TYPE": "PAYLOAD",
    "CLASSIFICATION_TYPE": "U",
    "INTLDES": "60008A",
    "EPOCH": "1960-11-11 20:43:51",
    "EPOCH_MICROSECONDS": "335040",
    "MEAN_MOTION": "16.10987363",
    "ECCENTRICITY": "0.0041854",
    "INCLINATION": "82.8499",
    "RA_OF_ASC_NODE": "240.5639",
    "ARG_OF_PERICENTER": "221.911",
    "MEAN_ANOMALY": "138.2461",
    "EPHEMERIS_TYPE": "0",
    "ELEMENT_SET_NO": "999",
    "REV_AT_EPOCH": "1450",
    "BSTAR": "0",
    "MEAN_MOTION_DOT": "0.00255821",
    "MEAN_MOTION_DDOT": "0",
    "FILE": "33906",
    "TLE_LINE0": "0 DISCOVERER 13",
    "TLE_LINE1": "1 00048U 60008  A 60316.86378860  .00255821 +00000-0 +00000-0 0  9991",
    "TLE_LINE2": "2 00048 082.8499 240.5639 0041854 221.9110 138.2461 16.10987363014500",
    "OBJECT_ID": "1960-008A",
    "OBJECT_NUMBER": "48",
    "SEMIMAJOR_AXIS": "6622.277",
    "PERIOD": "89.386",
    "APOGEE": "271.859",
    "PERIGEE": "216.425"
  },
  {
    "ORDINAL": "1",
    "COMMENT": "GENERATED VIA SPACETRACK.ORG API",
    "ORIGINATOR": "JSPOC",
    "NORAD_CAT_ID": "49",
    "OBJECT_NAME": "ECHO 1",
    "OBJECT_TYPE": "PAYLOAD",
    "CLASSIFICATION_TYPE": "U",
    "INTLDES": "60009A",
    "EPOCH": "1968-05-23 20:47:17",
    "EPOCH_MICROSECONDS": "439647",
    "MEAN_MOTION": "15.53427992",
    "ECCENTRICITY": "0.0018299",
    "INCLINATION": "47.1857",
    "RA_OF_ASC_NODE": "303.156",
    "ARG_OF_PERICENTER": "276.1888",
    "MEAN_ANOMALY": "83.6866",
    "EPHEMERIS_TYPE": "0",
    "ELEMENT_SET_NO": "999",
    "REV_AT_EPOCH": "36029",
    "BSTAR": "0",
    "MEAN_MOTION_DOT": "0.41988289",
    "MEAN_MOTION_DDOT": "0",
    "FILE": "33926",
    "TLE_LINE0": "0 ECHO 1",
    "TLE_LINE1": "1 00049U 60009  A 68144.86617407  .41988289 +00000-0 +00000-0 0  9999",
    "TLE_LINE2": "2 00049 047.1857 303.1560 0018299 276.1888 083.6866 15.53427992360298",
    "OBJECT_ID": "1960-009A",
    "OBJECT_NUMBER": "49",
    "SEMIMAJOR_AXIS": "6784.867",
    "PERIOD": "92.698",
    "APOGEE": "419.148",
    "PERIGEE": "394.316"
  },
  {
    "ORDINAL": "1",
    "COMMENT": "GENERATED VIA SPACETRACK.ORG API",
    "ORIGINATOR": "JSPOC",
    "NORAD_CAT_ID": "50",
    "OBJECT_NAME": "DELTA 1 R/B",
    "OBJECT_TYPE": "ROCKET BODY",
    "CLASSIFICATION_TYPE": "U",
    "INTLDES": "60009B",
    "EPOCH": "2019-03-18 10:40:45",
    "EPOCH_MICROSECONDS": "119424",
    "MEAN_MOTION": "12.20106803",
    "ECCENTRICITY": "0.011304",
    "INCLINATION": "47.2298",
    "RA_OF_ASC_NODE": "99.6653",
    "ARG_OF_PERICENTER": "43.4931",
    "MEAN_ANOMALY": "317.4708",
    "EPHEMERIS_TYPE": "0",
    "ELEMENT_SET_NO": "999",
    "REV_AT_EPOCH": "61442",
    "BSTAR": "0.00062412",
    "MEAN_MOTION_DOT": "-2e-07",
    "MEAN_MOTION_DDOT": "0",
    "FILE": "2427675",
    "TLE_LINE0": "0 DELTA 1 R/B",
    "TLE_LINE1": "1    50U 60009B   19077.44496666 -.00000020 +00000-0 +62412-3 0  9990",
    "TLE_LINE2": "2    50 047.2298 099.6653 0113040 043.4931 317.4708 12.20106803614420",
    "OBJECT_ID": "1960-009B",
    "OBJECT_NUMBER": "50",
    "SEMIMAJOR_AXIS": "7970.213",
    "PERIOD": "118.022",
    "APOGEE": "1682.173",
    "PERIGEE": "1501.982"
  },
  {
    "ORDINAL": "1",
    "COMMENT": "GENERATED VIA SPACETRACK.ORG API",
    "ORIGINATOR": "JSPOC",
    "NORAD_CAT_ID": "59",
    "OBJECT_NAME": "THOR ABLESTAR R/B",
    "OBJECT_TYPE": "ROCKET BODY",
    "CLASSIFICATION_TYPE": "U",
    "INTLDES": "60013B",
    "EPOCH": "2019-03-18 09:02:47",
    "EPOCH_MICROSECONDS": "855328",
    "MEAN_MOTION": "13.52966659",
    "ECCENTRICITY": "0.0189269",
    "INCLINATION": "28.2491",
    "RA_OF_ASC_NODE": "46.0839",
    "ARG_OF_PERICENTER": "49.8873",
    "MEAN_ANOMALY": "311.8097",
    "EPHEMERIS_TYPE": "0",
    "ELEMENT_SET_NO": "999",
    "REV_AT_EPOCH": "88465",
    "BSTAR": "2.401e-05",
    "MEAN_MOTION_DOT": "1.03e-06",
    "MEAN_MOTION_DDOT": "0",
    "FILE": "2427675",
    "TLE_LINE0": "0 THOR ABLESTAR R/B",
    "TLE_LINE1": "1    59U 60013B   19077.37694277 +.00000103 +00000-0 +24010-4 0  9998",
    "TLE_LINE2": "2    59 028.2491 046.0839 0189269 049.8873 311.8097 13.52966659884658",
    "OBJECT_ID": "1960-013B",
    "OBJECT_NUMBER": "59",
    "SEMIMAJOR_AXIS": "7439.500",
    "PERIOD": "106.432",
    "APOGEE": "1202.172",
    "PERIGEE": "920.558"
  },
  {
    "ORDINAL": "1",
    "COMMENT": "GENERATED VIA SPACETRACK.ORG API",
    "ORIGINATOR": "JSPOC",
    "NORAD_CAT_ID": "60",
    "OBJECT_NAME": "EXPLORER 8",
    "OBJECT_TYPE": "PAYLOAD",
    "CLASSIFICATION_TYPE": "U",
    "INTLDES": "60014A",
    "EPOCH": "2012-03-27 18:30:50",
    "EPOCH_MICROSECONDS": "26175",
    "MEAN_MOTION": "16.39420536",
    "ECCENTRICITY": "0.0014319",
    "INCLINATION": "49.8769",
    "RA_OF_ASC_NODE": "297.0017",
    "ARG_OF_PERICENTER": "253.4265",
    "MEAN_ANOMALY": "106.9983",
    "EPHEMERIS_TYPE": "0",
    "ELEMENT_SET_NO": "999",
    "REV_AT_EPOCH": "58617",
    "BSTAR": "0.00082585",
    "MEAN_MOTION_DOT": "0.112407",
    "MEAN_MOTION_DDOT": "1.2162e-05",
    "FILE": "1261097",
    "TLE_LINE0": "0 EXPLORER 8",
    "TLE_LINE1": "1 00060U 60014A   12087.77141234  .11240700  12162-4  82585-3 0  9996",
    "TLE_LINE2": "2 00060 049.8769 297.0017 0014319 253.4265 106.9983 16.39420536586174",
    "OBJECT_ID": "1960-014A",
    "OBJECT_NUMBER": "60",
    "SEMIMAJOR_AXIS": "6545.485",
    "PERIOD": "87.835",
    "APOGEE": "176.723",
    "PERIGEE": "157.978"
  },
  {
    "ORDINAL": "1",
    "COMMENT": "GENERATED VIA SPACETRACK.ORG API",
    "ORIGINATOR": "JSPOC",
    "NORAD_CAT_ID": "61",
    "OBJECT_NAME": "DISCOVERER 17",
    "OBJECT_TYPE": "PAYLOAD",
    "CLASSIFICATION_TYPE": "U",
    "INTLDES": "60015A",
    "EPOCH": "1960-12-29 00:38:57",
    "EPOCH_MICROSECONDS": "450047",
    "MEAN_MOTION": "16.28773935",
    "ECCENTRICITY": "0.0045646",
    "INCLINATION": "81.8599",
    "RA_OF_ASC_NODE": "16.2232",
    "ARG_OF_PERICENTER": "0.3782",
    "MEAN_ANOMALY": "359.6234",
    "EPHEMERIS_TYPE": "0",
    "ELEMENT_SET_NO": "999",
    "REV_AT_EPOCH": "710",
    "BSTAR": "0",
    "MEAN_MOTION_DOT": "0.10955548",
    "MEAN_MOTION_DDOT": "0",
    "FILE": "33906",
    "TLE_LINE0": "0 DISCOVERER 17",
    "TLE_LINE1": "1 00061U 60015  A 60364.02705382  .10955548 +00000-0 +00000-0 0  9992",
    "TLE_LINE2": "2 00061 081.8599 016.2232 0045646 000.3782 359.6234 16.28773935007101",
    "OBJECT_ID": "1960-015A",
    "OBJECT_NUMBER": "61",
    "SEMIMAJOR_AXIS": "6573.977",
    "PERIOD": "88.410",
    "APOGEE": "225.850",
    "PERIGEE": "165.835"
  },
  {
    "ORDINAL": "1",
    "COMMENT": "GENERATED VIA SPACETRACK.ORG API",
    "ORIGINATOR": "JSPOC",
    "NORAD_CAT_ID": "62",
    "OBJECT_NAME": "JUNO II R/B",
    "OBJECT_TYPE": "ROCKET BODY",
    "CLASSIFICATION_TYPE": "U",
    "INTLDES": "60014B",
    "EPOCH": "1985-10-26 23:50:56",
    "EPOCH_MICROSECONDS": "728032",
    "MEAN_MOTION": "16.41189261",
    "ECCENTRICITY": "0.0004622",
    "INCLINATION": "49.8852",
    "RA_OF_ASC_NODE": "300.2652",
    "ARG_OF_PERICENTER": "342.1851",
    "MEAN_ANOMALY": "17.9663",
    "EPHEMERIS_TYPE": "0",
    "ELEMENT_SET_NO": "999",
    "REV_AT_EPOCH": "23697",
    "BSTAR": "0.001403",
    "MEAN_MOTION_DOT": "0.22611759",
    "MEAN_MOTION_DDOT": "5.9541e-05",
    "FILE": "34395",
    "TLE_LINE0": "0 JUNO II R/B",
    "TLE_LINE1": "1 00062U 60014  B 85299.99371213  .22611759 +59541-4 +14030-2 0  9998",
    "TLE_LINE2": "2 00062 049.8852 300.2652 0004622 342.1851 017.9663 16.41189261236970",
    "OBJECT_ID": "1960-014B",
    "OBJECT_NUMBER": "62",
    "SEMIMAJOR_AXIS": "6540.781",
    "PERIOD": "87.741",
    "APOGEE": "165.670",
    "PERIGEE": "159.623"
  }
]
